{"type": "FeatureCollection", "features": [ {"type": "Feature", "properties": {"norad_id": 38832, "name": "FENGYUN 1C DEB", "group": "fengyun-1c-debris", "lat": 13.212568899491304, "lon": -144.53179667504457, "alt_km": 917.6407217540445, "timestamp": "2025-12-14T20:40:32.061648+00:00", "meta": {"OBJECT_NAME": "FENGYUN 1C DEB", "OBJECT_ID": "1999-025EVY", "EPOCH": "2025-12-06T01:35:41.081280", "MEAN_MOTION": 14.04461067, "ECCENTRICITY": 0.00842955, "INCLINATION": 99.2666, "RA_OF_ASC_NODE": 24.2995, "ARG_OF_PERICENTER": 61.4582, "MEAN_ANOMALY": 299.5038, "EPHEMERIS_TYPE": 0, "CLASSIFICATION_TYPE": "U", "NORAD_CAT_ID": 38832, "ELEMENT_SET_NO": 999, "REV_AT_EPOCH": 63664, "BSTAR": 0.0018423355, "MEAN_MOTION_DOT": 2.987e-05, "MEAN_MOTION_DDOT": 0}, "tle": {"line1": "1 38832U 99025EVY 25340.06644770  .00002987  00000+0  18423-2 0  9992", "line2": "2 38832  99.2666  24.2995 0084295  61.4582 299.5038 14.04461067636643"}}, "geometry": {"type": "Point", "coordinates": [-144.53179667504457, 13.212568899491304]}}, {"type": "Feature", "properties": {"norad_id": 39537, "name": "FENGYUN 1C DEB", "group": "fengyun-1c-debris", "lat": -33.72643525571487, "lon": -51.62443070925787, "alt_km": 1021.2769574613476, "timestamp": "2025-12-14T20:40:32.061657+00:00", "meta": {"OBJECT_NAME": "FENGYUN 1C DEB", "OBJECT_ID": "1999-025EWE", "EPOCH": "2025-12-08T16:10:28.003008", "MEAN_MOTION": 13.84154142, "ECCENTRICITY": 0.01774078, "INCLINATION": 99.1538, "RA_OF_ASC_NODE": 128.5243, "ARG_OF_PERICENTER": 352.1329, "MEAN_ANOMALY": 7.7052, "EPHEMERIS_TYPE": 0, "CLASSIFICATION_TYPE": "U", "NORAD_CAT_ID": 39537, "ELEMENT_SET_NO": 999, "REV_AT_EPOCH": 59200, "BSTAR": 0.0019509183, "MEAN_MOTION_DOT": 2.413e-05, "MEAN_MOTION_DDOT": 0}, "tle": {"line1": "1 39537U 99025EWE 25342.67393522  .00002413  00000+0  19509-2 0  9990", "line2": "2 39537  99.1538 128.5243 0177407 352.1329   7.7052 13.84154142592000"}}, "geometry": {"type": "Point", "coordinates": [-51.62443070925787, -33.72643525571487]}}, {"type": "Feature", "properties": {"norad_id": 39541, "name": "FENGYUN 1C DEB", "group": "fengyun-1c-debris", "lat": -34.163999396625705, "lon": -155.02298825621082, "alt_km": 874.239772156745, "timestamp": "2025-12-14T20:40:32.061667+00:00", "meta": {"OBJECT_NAME": "FENGYUN 1C DEB", "OBJECT_ID": "1999-025EWJ", "EPOCH": "2025-12-13T20:00:20.691648", "MEAN_MOTION": 14.20393498, "ECCENTRICITY": 0.00726242, "INCLINATION": 98.6795, "RA_OF_ASC_NODE": 29.9188, "ARG_OF_PERICENTER": 69.8534, "MEAN_ANOMALY": 291.0437, "EPHEMERIS_TYPE": 0, "CLASSIFICATION_TYPE": "U", "NORAD_CAT_ID": 39541, "ELEMENT_SET_NO": 999, "REV_AT_EPOCH": 59018, "BSTAR": 0.00074218003, "MEAN_MOTION_DOT": 1.59e-05, "MEAN_MOTION_DDOT": 0}, "tle": {"line1": "1 39541U 99025EWJ 25347.83357282  .00001590  00000+0  74218-3 0  9995", "line2": "2 39541  98.6795  29.9188 0072624  69.8534 291.0437 14.20393498590183"}}, "geometry": {"type": "Point", "coordinates": [-155.02298825621082, -34.163999396625705]}}, {"type": "Feature", "properties": {"norad_id": 39543, "name": "FENGYUN 1C DEB", "group": "fengyun-1c-debris", "lat": -0.031467987405375736, "lon": 18.592817004118157, "alt_km": 1179.1656348842143, "timestamp": "2025-12-14T20:40:32.061678+00:00", "meta": {"OBJECT_NAME": "FENGYUN 1C DEB", "OBJECT_ID": "1999-025EWL", "EPOCH": "2025-12-11T08:33:09.593856", "MEAN_MOTION": 13.70185484, "ECCENTRICITY": 0.03392448, "INCLINATION": 99.0424, "RA_OF_ASC_NODE": 15.2863, "ARG_OF_PERICENTER": 145.8033, "MEAN_ANOMALY": 216.5478, "EPHEMERIS_TYPE": 0, "CLASSIFICATION_TYPE": "U", "NORAD_CAT_ID": 39543, "ELEMENT_SET_NO": 999, "REV_AT_EPOCH": 49166, "BSTAR": 0.0012878927, "MEAN_MOTION_DOT": 1.665e-05, "MEAN_MOTION_DDOT": 0}, "tle": {"line1": "1 39543U 99025EWL 25345.35636104  .00001665  00000+0  12879-2 0  9992", "line2": "2 39543  99.0424  15.2863 0339244 145.8033 216.5478 13.70185484491668"}}, "geometry": {"type": "Point", "coordinates": [18.592817004118157, -0.031467987405375736]}}, {"type": "Feature", "properties": {"norad_id": 39544, "name": "FENGYUN 1C DEB", "group": "fengyun-1c-debris", "lat": -36.30851572448348, "lon": -125.58306900961202, "alt_km": 850.3855649130155, "timestamp": "2025-12-14T20:40:32.061688+00:00", "meta": {"OBJECT_NAME": "FENGYUN 1C DEB", "OBJECT_ID": "1999-025EWM", "EPOCH": "2025-12-08T09:22:33.750624", "MEAN_MOTION": 14.05512501, "ECCENTRICITY": 0.00547745, "INCLINATION": 98.7418, "RA_OF_ASC_NODE": 221.6849, "ARG_OF_PERICENTER": 21.3384, "MEAN_ANOMALY": 339.0051, "EPHEMERIS_TYPE": 0, "CLASSIFICATION_TYPE": "U", "NORAD_CAT_ID": 39544, "ELEMENT_SET_NO": 999, "REV_AT_EPOCH": 56794, "BSTAR": 0.00088149338, "MEAN_MOTION_DOT": 1.41e-05, "MEAN_MOTION_DDOT": 0}, "tle": {"line1": "1 39544U 99025EWM 25342.39066841  .00001410  00000+0  88149-3 0  9991", "line2": "2 39544  98.7418 221.6849 0054774  21.3384 339.0051 14.05512501567940"}}, "geometry": {"type": "Point", "coordinates": [-125.58306900961202, -36.30851572448348]}}, {"type": "Feature", "properties": {"norad_id": 40688, "name": "FENGYUN 1C DEB", "group": "fengyun-1c-debris", "lat": 63.626484671764615, "lon": -23.1102976841606, "alt_km": 940.7266680181001, "timestamp": "2025-12-14T20:40:32.061698+00:00", "meta": {"OBJECT_NAME": "FENGYUN 1C DEB", "OBJECT_ID": "1999-025EWU", "EPOCH": "2025-12-14T04:30:59.989248", "MEAN_MOTION": 13.83830257, "ECCENTRICITY": 0.01422257, "INCLINATION": 98.9679, "RA_OF_ASC_NODE": 137.6767, "ARG_OF_PERICENTER": 27.6977, "MEAN_ANOMALY": 333.1663, "EPHEMERIS_TYPE": 0, "CLASSIFICATION_TYPE": "U", "NORAD_CAT_ID": 40688, "ELEMENT_SET_NO": 999, "REV_AT_EPOCH": 29937, "BSTAR": 0.00045383232, "MEAN_MOTION_DOT": 5.02e-06, "MEAN_MOTION_DDOT": 0}, "tle": {"line1": "1 40688U 99025EWU 25348.18819432  .00000502  00000+0  45383-3 0  9991", "line2": "2 40688  98.9679 137.6767 0142225  27.6977 333.1663 13.83830257299372"}}, "geometry": {"type": "Point", "coordinates": [-23.1102976841606, 63.626484671764615]}}, {"type": "Feature", "properties": {"norad_id": 40689, "name": "FENGYUN 1C DEB", "group": "fengyun-1c-debris", "lat": 54.75190511655738, "lon": -106.44527616191618, "alt_km": 834.3204220317803, "timestamp": "2025-12-14T20:40:32.061708+00:00", "meta": {"OBJECT_NAME": "FENGYUN 1C DEB", "OBJECT_ID": "1999-025EWV", "EPOCH": "2025-12-14T01:03:15.785280", "MEAN_MOTION": 13.64707861, "ECCENTRICITY": 0.03105746, "INCLINATION": 99.1255, "RA_OF_ASC_NODE": 265.9316, "ARG_OF_PERICENTER": 97.9311, "MEAN_ANOMALY": 265.7198, "EPHEMERIS_TYPE": 0, "CLASSIFICATION_TYPE": "U", "NORAD_CAT_ID": 40689, "ELEMENT_SET_NO": 999, "REV_AT_EPOCH": 54901, "BSTAR": 0.0018986688, "MEAN_MOTION_DOT": 2.085e-05, "MEAN_MOTION_DDOT": 0}, "tle": {"line1": "1 40689U 99025EWV 25348.04393270  .00002085  00000+0  18987-2 0  9991", "line2": "2 40689  99.1255 265.9316 0310574  97.9311 265.7198 13.64707861549012"}}, "geometry": {"type": "Point", "coordinates": [-106.44527616191618, 54.75190511655738]}}, {"type": "Feature", "properties": {"norad_id": 40691, "name": "FENGYUN 1C DEB", "group": "fengyun-1c-debris", "lat": 1.8324159003268836, "lon": 20.775373315362145, "alt_km": 878.9015851725571, "timestamp": "2025-12-14T20:40:32.061718+00:00", "meta": {"OBJECT_NAME": "FENGYUN 1C DEB", "OBJECT_ID": "1999-025EWX", "EPOCH": "2025-12-03T08:15:02.306016", "MEAN_MOTION": 13.89944729, "ECCENTRICITY": 0.0128434, "INCLINATION": 99.0573, "RA_OF_ASC_NODE": 9.8547, "ARG_OF_PERICENTER": 336.6089, "MEAN_ANOMALY": 22.9259, "EPHEMERIS_TYPE": 0, "CLASSIFICATION_TYPE": "U", "NORAD_CAT_ID": 40691, "ELEMENT_SET_NO": 999, "REV_AT_EPOCH": 55305, "BSTAR": 0.00023937, "MEAN_MOTION_DOT": 2.71e-06, "MEAN_MOTION_DDOT": 0}, "tle": {"line1": "1 40691U 99025EWX 25337.34377669  .00000271  00000+0  23937-3 0  9996", "line2": "2 40691  99.0573   9.8547 0128434 336.6089  22.9259 13.89944729553058"}}, "geometry": {"type": "Point", "coordinates": [20.775373315362145, 1.8324159003268836]}}, {"type": "Feature", "properties": {"norad_id": 40695, "name": "FENGYUN 1C DEB", "group": "fengyun-1c-debris", "lat": 8.925964565944744, "lon": -71.1753744690589, "alt_km": 905.2549925482517, "timestamp": "2025-12-14T20:40:32.061728+00:00", "meta": {"OBJECT_NAME": "FENGYUN 1C DEB", "OBJECT_ID": "1999-025EXB", "EPOCH": "2025-12-13T14:05:14.046432", "MEAN_MOTION": 14.50963945, "ECCENTRICITY": 0.02807692, "INCLINATION": 99.4256, "RA_OF_ASC_NODE": 105.901, "ARG_OF_PERICENTER": 330.5257, "MEAN_ANOMALY": 28.035, "EPHEMERIS_TYPE": 0, "CLASSIFICATION_TYPE": "U", "NORAD_CAT_ID": 40695, "ELEMENT_SET_NO": 999, "REV_AT_EPOCH": 31878, "BSTAR": 0.00027574233, "MEAN_MOTION_DOT": 1.742e-05, "MEAN_MOTION_DDOT": 0}, "tle": {"line1": "1 40695U 99025EXB 25347.58696813  .00001742  00000+0  27574-3 0  9997", "line2": "2 40695  99.4256 105.9010 0280769 330.5257  28.0350 14.50963945318785"}}, "geometry": {"type": "Point", "coordinates": [-71.1753744690589, 8.925964565944744]}}, {"type": "Feature", "properties": {"norad_id": 40696, "name": "FENGYUN 1C DEB", "group": "fengyun-1c-debris", "lat": 0.5603171768409035, "lon": -24.528664931148832, "alt_km": 849.8928886283766, "timestamp": "2025-12-14T20:40:32.061738+00:00", "meta": {"OBJECT_NAME": "FENGYUN 1C DEB", "OBJECT_ID": "1999-025EXC", "EPOCH": "2025-11-26T05:40:29.681760", "MEAN_MOTION": 13.96727195, "ECCENTRICITY": 0.00806572, "INCLINATION": 98.9548, "RA_OF_ASC_NODE": 317.4298, "ARG_OF_PERICENTER": 42.7994, "MEAN_ANOMALY": 317.9411, "EPHEMERIS_TYPE": 0, "CLASSIFICATION_TYPE": "U", "NORAD_CAT_ID": 40696, "ELEMENT_SET_NO": 999, "REV_AT_EPOCH": 55449, "BSTAR": 0.0001965233, "MEAN_MOTION_DOT": 2.38e-06, "MEAN_MOTION_DDOT": 0}, "tle": {"line1": "1 40696U 99025EXC 25330.23645465  .00000238  00000+0  19652-3 0  9996", "line2": "2 40696  98.9548 317.4298 0080657  42.7994 317.9411 13.96727195554498"}}, "geometry": {"type": "Point", "coordinates": [-24.528664931148832, 0.5603171768409035]}}]}